start=new Date('2023-03-04T00:00:00.000Z').valueOf();
sats=[{"MEAN_MOTION":"15.64807794","ARG_OF_PERICENTER":"294.5828","ELEMENT_SET_NO":"999","SITE":"AFETR","BSTAR":"0.00090760000000","MEAN_ELEMENT_THEORY":"SGP4","MEAN_MOTION_DOT":"0.00091598","CENTER_NAME":"EARTH","OBJECT_ID":"2023-015AZ","LAUNCH_DATE":"2023-02-02","APOAPSIS":"374.877","PERIOD":"92.024","EPHEMERIS_TYPE":"0","REF_FRAME":"TEME","GP_ID":"227436677","EPOCH":"2023-03-03T17:42:32.759424","SEMIMAJOR_AXIS":"6751.929","NORAD_CAT_ID":"55496","PERIAPSIS":"372.711","TLE_LINE1":"1 55496U 23015AZ  23062.73787916  .00091598  00000-0  90760-3 0  9998","INCLINATION":"42.9995","DECAY_DATE":null,"ECCENTRICITY":"0.00016040","OBJECT_TYPE":"PAYLOAD","TIME_SYSTEM":"UTC","CLASSIFICATION_TYPE":"U","MEAN_MOTION_DDOT":"0.0000000000000","FILE":"3850400","OBJECT_NAME":"STARLINK-5139","TLE_LINE2":"2 55496  42.9995 211.6434 0001604 294.5828  65.4870 15.64807794  4789","RCS_SIZE":"LARGE","REV_AT_EPOCH":"478","MEAN_ANOMALY":"65.4870","RA_OF_ASC_NODE":"211.6434","COUNTRY_CODE":"US"},{"ECCENTRICITY":"0.00014570","TLE_LINE1":"1 55497U 23015BA  23062.91667824 -.01183319  00000-0 -19077-1 0  9990","INCLINATION":"42.9997","DECAY_DATE":null,"OBJECT_TYPE":"PAYLOAD","TIME_SYSTEM":"UTC","CLASSIFICATION_TYPE":"U","MEAN_MOTION_DDOT":"0.0000000000000","TLE_LINE2":"2 55497  42.9997 210.7404 0001457 278.5660 303.5439 15.55073310  1302","RCS_SIZE":"LARGE","OBJECT_NAME":"STARLINK-5363","FILE":"3850400","REV_AT_EPOCH":"130","COUNTRY_CODE":"US","MEAN_ANOMALY":"303.5439","RA_OF_ASC_NODE":"210.7404","MEAN_MOTION":"15.55073310","ELEMENT_SET_NO":"999","ARG_OF_PERICENTER":"278.5660","SITE":"AFETR","CENTER_NAME":"EARTH","OBJECT_ID":"2023-015BA","BSTAR":"-0.01907700000000","MEAN_ELEMENT_THEORY":"SGP4","MEAN_MOTION_DOT":"-0.01183319","APOAPSIS":"402.929","PERIOD":"92.600","LAUNCH_DATE":"2023-02-02","REF_FRAME":"TEME","EPHEMERIS_TYPE":"0","SEMIMAJOR_AXIS":"6780.077","NORAD_CAT_ID":"55497","GP_ID":"227437429","EPOCH":"2023-03-03T22:00:00.999936","PERIAPSIS":"400.954"},{"CENTER_NAME":"EARTH","OBJECT_ID":"2023-015BB","MEAN_ELEMENT_THEORY":"SGP4","BSTAR":"-0.01891700000000","MEAN_MOTION_DOT":"-0.01182437","SITE":"AFETR","ELEMENT_SET_NO":"999","ARG_OF_PERICENTER":"279.2059","MEAN_MOTION":"15.55276596","PERIAPSIS":"400.295","SEMIMAJOR_AXIS":"6779.486","NORAD_CAT_ID":"55498","GP_ID":"227437180","EPOCH":"2023-03-03T22:00:00.999936","REF_FRAME":"TEME","EPHEMERIS_TYPE":"0","APOAPSIS":"402.406","PERIOD":"92.588","LAUNCH_DATE":"2023-02-02","CLASSIFICATION_TYPE":"U","MEAN_MOTION_DDOT":"0.0000000000000","OBJECT_TYPE":"PAYLOAD","TIME_SYSTEM":"UTC","ECCENTRICITY":"0.00015570","TLE_LINE1":"1 55498U 23015BB  23062.91667824 -.01182437  00000-0 -18917-1 0  9993","INCLINATION":"42.9997","DECAY_DATE":null,"COUNTRY_CODE":"US","MEAN_ANOMALY":"309.3355","RA_OF_ASC_NODE":"210.7248","REV_AT_EPOCH":"130","TLE_LINE2":"2 55498  42.9997 210.7248 0001557 279.2059 309.3355 15.55276596  1302","RCS_SIZE":"LARGE","FILE":"3850400","OBJECT_NAME":"STARLINK-5365"},{"EPOCH":"2023-03-03T22:00:00.999936","GP_ID":"227435928","NORAD_CAT_ID":"55499","SEMIMAJOR_AXIS":"6779.138","PERIAPSIS":"399.999","LAUNCH_DATE":"2023-02-02","PERIOD":"92.581","APOAPSIS":"402.008","EPHEMERIS_TYPE":"0","REF_FRAME":"TEME","SITE":"AFETR","MEAN_MOTION_DOT":"-0.01183771","BSTAR":"-0.01885700000000","MEAN_ELEMENT_THEORY":"SGP4","OBJECT_ID":"2023-015BC","CENTER_NAME":"EARTH","MEAN_MOTION":"15.55396196","ARG_OF_PERICENTER":"265.3295","ELEMENT_SET_NO":"999","RA_OF_ASC_NODE":"210.7151","MEAN_ANOMALY":"327.0813","COUNTRY_CODE":"US","FILE":"3850400","OBJECT_NAME":"STARLINK-5366","TLE_LINE2":"2 55499  42.9996 210.7151 0001482 265.3295 327.0813 15.55396196  1305","RCS_SIZE":"LARGE","REV_AT_EPOCH":"130","TIME_SYSTEM":"UTC","OBJECT_TYPE":"PAYLOAD","MEAN_MOTION_DDOT":"0.0000000000000","CLASSIFICATION_TYPE":"U","DECAY_DATE":null,"TLE_LINE1":"1 55499U 23015BC  23062.91667824 -.01183771  00000-0 -18857-1 0  9999","INCLINATION":"42.9996","ECCENTRICITY":"0.00014820"},{"ARG_OF_PERICENTER":"272.5964","ELEMENT_SET_NO":"999","MEAN_MOTION":"15.54913180","MEAN_ELEMENT_THEORY":"SGP4","BSTAR":"-0.01815400000000","MEAN_MOTION_DOT":"-0.01125670","CENTER_NAME":"EARTH","OBJECT_ID":"2023-015BD","SITE":"AFETR","EPHEMERIS_TYPE":"0","REF_FRAME":"TEME","LAUNCH_DATE":"2023-02-02","APOAPSIS":"403.756","PERIOD":"92.610","PERIAPSIS":"401.058","GP_ID":"227436178","EPOCH":"2023-03-03T22:00:00.999936","SEMIMAJOR_AXIS":"6780.542","NORAD_CAT_ID":"55500","TLE_LINE1":"1 55500U 23015BD  23062.91667824 -.01125670  00000-0 -18154-1 0  9996","INCLINATION":"42.9995","DECAY_DATE":null,"ECCENTRICITY":"0.00019890","CLASSIFICATION_TYPE":"U","MEAN_MOTION_DDOT":"0.0000000000000","OBJECT_TYPE":"PAYLOAD","TIME_SYSTEM":"UTC","REV_AT_EPOCH":"130","OBJECT_NAME":"STARLINK-5141","FILE":"3850400","RCS_SIZE":"LARGE","TLE_LINE2":"2 55500  42.9995 210.7337 0001989 272.5964 312.4771 15.54913180  1306","MEAN_ANOMALY":"312.4771","RA_OF_ASC_NODE":"210.7337","COUNTRY_CODE":"US"},{"DECAY_DATE":null,"TLE_LINE1":"1 55501U 23015BE  23062.91667824 -.01182007  00000-0 -18862-1 0  9990","INCLINATION":"42.9996","ECCENTRICITY":"0.00015120","TIME_SYSTEM":"UTC","OBJECT_TYPE":"PAYLOAD","MEAN_MOTION_DDOT":"0.0000000000000","CLASSIFICATION_TYPE":"U","FILE":"3850400","OBJECT_NAME":"STARLINK-5367","TLE_LINE2":"2 55501  42.9996 210.7192 0001512 271.6379 319.0441 15.55344311  1301","RCS_SIZE":"LARGE","REV_AT_EPOCH":"130","RA_OF_ASC_NODE":"210.7192","MEAN_ANOMALY":"319.0441","COUNTRY_CODE":"US","MEAN_MOTION":"15.55344311","ARG_OF_PERICENTER":"271.6379","ELEMENT_SET_NO":"999","SITE":"AFETR","MEAN_MOTION_DOT":"-0.01182007","BSTAR":"-0.01886200000000","MEAN_ELEMENT_THEORY":"SGP4","OBJECT_ID":"2023-015BE","CENTER_NAME":"EARTH","LAUNCH_DATE":"2023-02-02","APOAPSIS":"402.179","PERIOD":"92.584","EPHEMERIS_TYPE":"0","REF_FRAME":"TEME","EPOCH":"2023-03-03T22:00:00.999936","GP_ID":"227436930","NORAD_CAT_ID":"55501","SEMIMAJOR_AXIS":"6779.289","PERIAPSIS":"400.129"},{"SEMIMAJOR_AXIS":"6765.790","NORAD_CAT_ID":"55569","GP_ID":"227436686","EPOCH":"2023-03-03T22:00:00.999936","PERIAPSIS":"386.222","PERIOD":"92.308","APOAPSIS":"389.088","LAUNCH_DATE":"2023-02-12","REF_FRAME":"TEME","EPHEMERIS_TYPE":"0","SITE":"AFETR","CENTER_NAME":"EARTH","OBJECT_ID":"2023-020A","MEAN_ELEMENT_THEORY":"SGP4","BSTAR":"-0.01087500000000","MEAN_MOTION_DOT":"-0.00828882","MEAN_MOTION":"15.60001284","ELEMENT_SET_NO":"999","ARG_OF_PERICENTER":"278.2935","COUNTRY_CODE":"US","MEAN_ANOMALY":"321.7314","RA_OF_ASC_NODE":"237.6891","TLE_LINE2":"2 55569  42.9979 237.6891 0002118 278.2935 321.7314 15.60001284  1308","RCS_SIZE":"LARGE","OBJECT_NAME":"STARLINK-5749","FILE":"3850400","REV_AT_EPOCH":"130","OBJECT_TYPE":"PAYLOAD","TIME_SYSTEM":"UTC","CLASSIFICATION_TYPE":"U","MEAN_MOTION_DDOT":"0.0000000000000","ECCENTRICITY":"0.00021180","INCLINATION":"42.9979","TLE_LINE1":"1 55569U 23020A   23062.91667824 -.00828882  00000-0 -10875-1 0  9993","DECAY_DATE":null},{"MEAN_MOTION":"15.60261420","ARG_OF_PERICENTER":"268.6915","ELEMENT_SET_NO":"999","SITE":"AFETR","MEAN_MOTION_DOT":"-0.01141028","MEAN_ELEMENT_THEORY":"SGP4","BSTAR":"-0.01505100000000","OBJECT_ID":"2023-020B","CENTER_NAME":"EARTH","LAUNCH_DATE":"2023-02-12","APOAPSIS":"387.758","PERIOD":"92.292","EPHEMERIS_TYPE":"0","REF_FRAME":"TEME","EPOCH":"2023-03-03T22:00:00.999936","GP_ID":"227437438","NORAD_CAT_ID":"55570","SEMIMAJOR_AXIS":"6765.038","PERIAPSIS":"386.048","DECAY_DATE":null,"INCLINATION":"42.9989","TLE_LINE1":"1 55570U 23020B   23062.91667824 -.01141028  00000-0 -15051-1 0  9997","ECCENTRICITY":"0.00012640","TIME_SYSTEM":"UTC","OBJECT_TYPE":"PAYLOAD","MEAN_MOTION_DDOT":"0.0000000000000","CLASSIFICATION_TYPE":"U","FILE":"3850400","OBJECT_NAME":"STARLINK-5737","RCS_SIZE":"LARGE","TLE_LINE2":"2 55570  42.9989 237.6935 0001264 268.6915 330.2070 15.60261420  1306","REV_AT_EPOCH":"130","RA_OF_ASC_NODE":"237.6935","MEAN_ANOMALY":"330.2070","COUNTRY_CODE":"US"},{"COUNTRY_CODE":"US","MEAN_ANOMALY":"323.7123","RA_OF_ASC_NODE":"237.6874","REV_AT_EPOCH":"130","TLE_LINE2":"2 55571  42.9976 237.6874 0001463 277.0533 323.7123 15.60300038  1301","RCS_SIZE":"LARGE","OBJECT_NAME":"STARLINK-5739","FILE":"3850400","CLASSIFICATION_TYPE":"U","MEAN_MOTION_DDOT":"0.0000000000000","OBJECT_TYPE":"PAYLOAD","TIME_SYSTEM":"UTC","ECCENTRICITY":"0.00014630","TLE_LINE1":"1 55571U 23020C   23062.91667824 -.01139893  00000-0 -15011-1 0  9991","INCLINATION":"42.9976","DECAY_DATE":null,"PERIAPSIS":"385.802","SEMIMAJOR_AXIS":"6764.927","NORAD_CAT_ID":"55571","GP_ID":"227437189","EPOCH":"2023-03-03T22:00:00.999936","REF_FRAME":"TEME","EPHEMERIS_TYPE":"0","PERIOD":"92.290","APOAPSIS":"387.781","LAUNCH_DATE":"2023-02-12","CENTER_NAME":"EARTH","OBJECT_ID":"2023-020C","BSTAR":"-0.01501100000000","MEAN_ELEMENT_THEORY":"SGP4","MEAN_MOTION_DOT":"-0.01139893","SITE":"AFETR","ELEMENT_SET_NO":"999","ARG_OF_PERICENTER":"277.0533","MEAN_MOTION":"15.60300038"},{"TLE_LINE2":"2 55572  42.9991 237.6844 0001515 281.7763 320.8490 15.60345582  1309","RCS_SIZE":"LARGE","FILE":"3850400","OBJECT_NAME":"STARLINK-5732","REV_AT_EPOCH":"130","COUNTRY_CODE":"US","MEAN_ANOMALY":"320.8490","RA_OF_ASC_NODE":"237.6844","ECCENTRICITY":"0.00015150","TLE_LINE1":"1 55572U 23020D   23062.91667824 -.01142625  00000-0 -15024-1 0  9993","INCLINATION":"42.9991","DECAY_DATE":null,"OBJECT_TYPE":"PAYLOAD","TIME_SYSTEM":"UTC","CLASSIFICATION_TYPE":"U","MEAN_MOTION_DDOT":"0.0000000000000","PERIOD":"92.287","APOAPSIS":"387.685","LAUNCH_DATE":"2023-02-12","REF_FRAME":"TEME","EPHEMERIS_TYPE":"0","SEMIMAJOR_AXIS":"6764.795","NORAD_CAT_ID":"55572","GP_ID":"227435937","EPOCH":"2023-03-03T22:00:00.999936","PERIAPSIS":"385.635","MEAN_MOTION":"15.60345582","ELEMENT_SET_NO":"999","ARG_OF_PERICENTER":"281.7763","SITE":"AFETR","CENTER_NAME":"EARTH","OBJECT_ID":"2023-020D","BSTAR":"-0.01502400000000","MEAN_ELEMENT_THEORY":"SGP4","MEAN_MOTION_DOT":"-0.01142625"}];
